{
    "links": {
        "self": "http://www.neowsapp.com/rest/v1/neo/54087427?api_key=iIulBulltgU6a56xZRHN4H3l9WmuAYTsLGpBGhQ2"
    },
    "id": "54087427",
    "neo_reference_id": "54087427",
    "name": "(2020 VQ)",
    "designation": "2020 VQ",
    "nasa_jpl_url": "http://ssd.jpl.nasa.gov/sbdb.cgi?sstr=54087427",
    "absolute_magnitude_h": 24.929,
    "estimated_diameter": {
        "kilometers": {
            "estimated_diameter_min": 0.0274634426,
            "estimated_diameter_max": 0.0614101246
        },
        "meters": {
            "estimated_diameter_min": 27.4634426361,
            "estimated_diameter_max": 61.4101246306
        },
        "miles": {
            "estimated_diameter_min": 0.0170649868,
            "estimated_diameter_max": 0.0381584706
        },
        "feet": {
            "estimated_diameter_min": 90.1031611384,
            "estimated_diameter_max": 201.476793293
        }
    },
    "is_potentially_hazardous_asteroid": false,
    "close_approach_data": [
        {
            "close_approach_date": "2017-05-25",
            "close_approach_date_full": "2017-May-25 02:52",
            "epoch_date_close_approach": 1495680720000,
            "relative_velocity": {
                "kilometers_per_second": "12.2549276103",
                "kilometers_per_hour": "44117.7393970505",
                "miles_per_hour": "27413.0475714617"
            },
            "miss_distance": {
                "astronomical": "0.4421320168",
                "lunar": "171.9893545352",
                "kilometers": "66142007.972084216",
                "miles": "41098737.9800495408"
            },
            "orbiting_body": "Earth"
        },
        {
            "close_approach_date": "2020-11-02",
            "close_approach_date_full": "2020-Nov-02 17:44",
            "epoch_date_close_approach": 1604339040000,
            "relative_velocity": {
                "kilometers_per_second": "12.8754559775",
                "kilometers_per_hour": "46351.6415189514",
                "miles_per_hour": "28801.1074760396"
            },
            "miss_distance": {
                "astronomical": "0.0823308322",
                "lunar": "32.0266937258",
                "kilometers": "12316517.132447414",
                "miles": "7653128.8658017532"
            },
            "orbiting_body": "Earth"
        },
        {
            "close_approach_date": "2177-05-02",
            "close_approach_date_full": "2177-May-02 01:50",
            "epoch_date_close_approach": 6542819400000,
            "relative_velocity": {
                "kilometers_per_second": "12.8876308297",
                "kilometers_per_hour": "46395.4709869319",
                "miles_per_hour": "28828.3414029633"
            },
            "miss_distance": {
                "astronomical": "0.4906678441",
                "lunar": "190.8697913549",
                "kilometers": "73402864.354852067",
                "miles": "45610424.9265978446"
            },
            "orbiting_body": "Earth"
        }
    ],
    "orbital_data": {
        "orbit_id": "8",
        "orbit_determination_date": "2020-11-14 05:24:05",
        "first_observation_date": "2020-11-04",
        "last_observation_date": "2020-11-14",
        "data_arc_in_days": 10,
        "observations_used": 53,
        "orbit_uncertainty": "8",
        "minimum_orbit_intersection": ".0820887",
        "jupiter_tisserand_invariant": "4.947",
        "epoch_osculation": "2459159.5",
        "eccentricity": ".1733750333967043",
        "semi_major_axis": "1.283915898006532",
        "inclination": "23.90009322209989",
        "ascending_node_longitude": "42.22042947952794",
        "orbital_period": "531.3776595667628",
        "perihelion_distance": "1.06131693631109",
        "perihelion_argument": "336.0032068923148",
        "aphelion_distance": "1.506514859701974",
        "perihelion_time": "2459133.761867362340",
        "mean_anomaly": "17.43717972093903",
        "mean_motion": ".6774842591115168",
        "equinox": "J2000",
        "orbit_class": {
            "orbit_class_type": "AMO",
            "orbit_class_description": "Near-Earth asteroid orbits similar to that of 1221 Amor",
            "orbit_class_range": "1.017 AU < q (perihelion) < 1.3 AU"
        }
    },
    "is_sentry_object": false
}